{
  "type": "FeatureCollection",
  "crs": {
    "type": "name",
    "properties": {
      "name": "EPSG:4326"
    }
  },
  "features": [
    {
      "type": "Feature",
      "geometry": {
        "type": "Polygon",
        "coordinates": [
          [
            [
              81.6240234375,
              16.6865234375
            ],
            [
              81.6240234375,
              16.685546875
            ],
            [
              81.61328125,
              16.685546875
            ],
            [
              81.61328125,
              16.6845703125
            ],
            [
              81.609375,
              16.6845703125
            ],
            [
              81.609375,
              16.68359375
            ],
            [
              81.60546875,
              16.68359375
            ],
            [
              81.60546875,
              16.6826171875
            ],
            [
              81.6025390625,
              16.6826171875
            ],
            [
              81.6025390625,
              16.681640625
            ],
            [
              81.6005859375,
              16.681640625
            ],
            [
              81.6005859375,
              16.6806640625
            ],
            [
              81.59765625,
              16.6806640625
            ],
            [
              81.59765625,
              16.6796875
            ],
            [
              81.5966796875,
              16.6796875
            ],
            [
              81.5966796875,
              16.6787109375
            ],
            [
              81.5947265625,
              16.6787109375
            ],
            [
              81.5947265625,
              16.677734375
            ],
            [
              81.5927734375,
              16.677734375
            ],
            [
              81.5927734375,
              16.6767578125
            ],
            [
              81.591796875,
              16.6767578125
            ],
            [
              81.591796875,
              16.67578125
            ],
            [
              81.58984375,
              16.67578125
            ],
            [
              81.58984375,
              16.6748046875
            ],
            [
              81.5888671875,
              16.6748046875
            ],
            [
              81.5888671875,
              16.673828125
            ],
            [
              81.587890625,
              16.673828125
            ],
            [
              81.587890625,
              16.6728515625
            ],
            [
              81.5859375,
              16.6728515625
            ],
            [
              81.5859375,
              16.671875
            ],
            [
              81.5849609375,
              16.671875
            ],
            [
              81.5849609375,
              16.6708984375
            ],
            [
              81.583984375,
              16.6708984375
            ],
            [
              81.583984375,
              16.669921875
            ],
            [
              81.5830078125,
              16.669921875
            ],
            [
              81.5830078125,
              16.6689453125
            ],
            [
              81.58203125,
              16.6689453125
            ],
            [
              81.58203125,
              16.66796875
            ],
            [
              81.5810546875,
              16.66796875
            ],
            [
              81.5810546875,
              16.6669921875
            ],
            [
              81.580078125,
              16.6669921875
            ],
            [
              81.580078125,
              16.666015625
            ],
            [
              81.5791015625,
              16.666015625
            ],
            [
              81.5791015625,
              16.6650390625
            ],
            [
              81.578125,
              16.6650390625
            ],
            [
              81.578125,
              16.6640625
            ],
            [
              81.5771484375,
              16.6640625
            ],
            [
              81.5771484375,
              16.662109375
            ],
            [
              81.576171875,
              16.662109375
            ],
            [
              81.576171875,
              16.6611328125
            ],
            [
              81.5751953125,
              16.6611328125
            ],
            [
              81.5751953125,
              16.66015625
            ],
            [
              81.57421875,
              16.66015625
            ],
            [
              81.57421875,
              16.658203125
            ],
            [
              81.5732421875,
              16.658203125
            ],
            [
              81.5732421875,
              16.6572265625
            ],
            [
              81.572265625,
              16.6572265625
            ],
            [
              81.572265625,
              16.6552734375
            ],
            [
              81.5712890625,
              16.6552734375
            ],
            [
              81.5712890625,
              16.6533203125
            ],
            [
              81.5703125,
              16.6533203125
            ],
            [
              81.5703125,
              16.65234375
            ],
            [
              81.5693359375,
              16.65234375
            ],
            [
              81.5693359375,
              16.6494140625
            ],
            [
              81.568359375,
              16.6494140625
            ],
            [
              81.568359375,
              16.6474609375
            ],
            [
              81.5673828125,
              16.6474609375
            ],
            [
              81.5673828125,
              16.64453125
            ],
            [
              81.56640625,
              16.64453125
            ],
            [
              81.56640625,
              16.640625
            ],
            [
              81.5654296875,
              16.640625
            ],
            [
              81.5654296875,
              16.63671875
            ],
            [
              81.564453125,
              16.63671875
            ],
            [
              81.564453125,
              16.6259765625
            ],
            [
              81.5634765625,
              16.6259765625
            ],
            [
              81.5634765625,
              16.623046875
            ],
            [
              81.564453125,
              16.623046875
            ],
            [
              81.564453125,
              16.6123046875
            ],
            [
              81.5654296875,
              16.6123046875
            ],
            [
              81.5654296875,
              16.6083984375
            ],
            [
              81.56640625,
              16.6083984375
            ],
            [
              81.56640625,
              16.6044921875
            ],
            [
              81.5673828125,
              16.6044921875
            ],
            [
              81.5673828125,
              16.6015625
            ],
            [
              81.568359375,
              16.6015625
            ],
            [
              81.568359375,
              16.599609375
            ],
            [
              81.5693359375,
              16.599609375
            ],
            [
              81.5693359375,
              16.5966796875
            ],
            [
              81.5703125,
              16.5966796875
            ],
            [
              81.5703125,
              16.595703125
            ],
            [
              81.5712890625,
              16.595703125
            ],
            [
              81.5712890625,
              16.59375
            ],
            [
              81.572265625,
              16.59375
            ],
            [
              81.572265625,
              16.591796875
            ],
            [
              81.5732421875,
              16.591796875
            ],
            [
              81.5732421875,
              16.5908203125
            ],
            [
              81.57421875,
              16.5908203125
            ],
            [
              81.57421875,
              16.5888671875
            ],
            [
              81.5751953125,
              16.5888671875
            ],
            [
              81.5751953125,
              16.587890625
            ],
            [
              81.576171875,
              16.587890625
            ],
            [
              81.576171875,
              16.5869140625
            ],
            [
              81.5771484375,
              16.5869140625
            ],
            [
              81.5771484375,
              16.5849609375
            ],
            [
              81.578125,
              16.5849609375
            ],
            [
              81.578125,
              16.583984375
            ],
            [
              81.5791015625,
              16.583984375
            ],
            [
              81.5791015625,
              16.5830078125
            ],
            [
              81.580078125,
              16.5830078125
            ],
            [
              81.580078125,
              16.58203125
            ],
            [
              81.5810546875,
              16.58203125
            ],
            [
              81.5810546875,
              16.5810546875
            ],
            [
              81.58203125,
              16.5810546875
            ],
            [
              81.58203125,
              16.580078125
            ],
            [
              81.5830078125,
              16.580078125
            ],
            [
              81.5830078125,
              16.5791015625
            ],
            [
              81.583984375,
              16.5791015625
            ],
            [
              81.583984375,
              16.578125
            ],
            [
              81.5849609375,
              16.578125
            ],
            [
              81.5849609375,
              16.5771484375
            ],
            [
              81.5859375,
              16.5771484375
            ],
            [
              81.5859375,
              16.576171875
            ],
            [
              81.587890625,
              16.576171875
            ],
            [
              81.587890625,
              16.5751953125
            ],
            [
              81.5888671875,
              16.5751953125
            ],
            [
              81.5888671875,
              16.57421875
            ],
            [
              81.58984375,
              16.57421875
            ],
            [
              81.58984375,
              16.5732421875
            ],
            [
              81.591796875,
              16.5732421875
            ],
            [
              81.591796875,
              16.572265625
            ],
            [
              81.5927734375,
              16.572265625
            ],
            [
              81.5927734375,
              16.5712890625
            ],
            [
              81.5947265625,
              16.5712890625
            ],
            [
              81.5947265625,
              16.5703125
            ],
            [
              81.5966796875,
              16.5703125
            ],
            [
              81.5966796875,
              16.5693359375
            ],
            [
              81.59765625,
              16.5693359375
            ],
            [
              81.59765625,
              16.568359375
            ],
            [
              81.6005859375,
              16.568359375
            ],
            [
              81.6005859375,
              16.5673828125
            ],
            [
              81.6025390625,
              16.5673828125
            ],
            [
              81.6025390625,
              16.56640625
            ],
            [
              81.60546875,
              16.56640625
            ],
            [
              81.60546875,
              16.5654296875
            ],
            [
              81.609375,
              16.5654296875
            ],
            [
              81.609375,
              16.564453125
            ],
            [
              81.61328125,
              16.564453125
            ],
            [
              81.61328125,
              16.5634765625
            ],
            [
              81.6240234375,
              16.5634765625
            ],
            [
              81.6240234375,
              16.5625
            ],
            [
              81.626953125,
              16.5625
            ],
            [
              81.626953125,
              16.5634765625
            ],
            [
              81.6376953125,
              16.5634765625
            ],
            [
              81.6376953125,
              16.564453125
            ],
            [
              81.6416015625,
              16.564453125
            ],
            [
              81.6416015625,
              16.5654296875
            ],
            [
              81.6455078125,
              16.5654296875
            ],
            [
              81.6455078125,
              16.56640625
            ],
            [
              81.6484375,
              16.56640625
            ],
            [
              81.6484375,
              16.5673828125
            ],
            [
              81.650390625,
              16.5673828125
            ],
            [
              81.650390625,
              16.568359375
            ],
            [
              81.6533203125,
              16.568359375
            ],
            [
              81.6533203125,
              16.5693359375
            ],
            [
              81.6552734375,
              16.5693359375
            ],
            [
              81.6552734375,
              16.5703125
            ],
            [
              81.65625,
              16.5703125
            ],
            [
              81.65625,
              16.5712890625
            ],
            [
              81.658203125,
              16.5712890625
            ],
            [
              81.658203125,
              16.572265625
            ],
            [
              81.66015625,
              16.572265625
            ],
            [
              81.66015625,
              16.5732421875
            ],
            [
              81.6611328125,
              16.5732421875
            ],
            [
              81.6611328125,
              16.57421875
            ],
            [
              81.6630859375,
              16.57421875
            ],
            [
              81.6630859375,
              16.5751953125
            ],
            [
              81.6640625,
              16.5751953125
            ],
            [
              81.6640625,
              16.576171875
            ],
            [
              81.6650390625,
              16.576171875
            ],
            [
              81.6650390625,
              16.5771484375
            ],
            [
              81.6669921875,
              16.5771484375
            ],
            [
              81.6669921875,
              16.578125
            ],
            [
              81.66796875,
              16.578125
            ],
            [
              81.66796875,
              16.580078125
            ],
            [
              81.6689453125,
              16.580078125
            ],
            [
              81.6689453125,
              16.5810546875
            ],
            [
              81.669921875,
              16.5810546875
            ],
            [
              81.669921875,
              16.58203125
            ],
            [
              81.6708984375,
              16.58203125
            ],
            [
              81.6708984375,
              16.5830078125
            ],
            [
              81.671875,
              16.5830078125
            ],
            [
              81.671875,
              16.583984375
            ],
            [
              81.6728515625,
              16.583984375
            ],
            [
              81.6728515625,
              16.5849609375
            ],
            [
              81.673828125,
              16.5849609375
            ],
            [
              81.673828125,
              16.5869140625
            ],
            [
              81.6748046875,
              16.5869140625
            ],
            [
              81.6748046875,
              16.587890625
            ],
            [
              81.67578125,
              16.587890625
            ],
            [
              81.67578125,
              16.5888671875
            ],
            [
              81.6767578125,
              16.5888671875
            ],
            [
              81.6767578125,
              16.5908203125
            ],
            [
              81.677734375,
              16.5908203125
            ],
            [
              81.677734375,
              16.591796875
            ],
            [
              81.6787109375,
              16.591796875
            ],
            [
              81.6787109375,
              16.59375
            ],
            [
              81.6796875,
              16.59375
            ],
            [
              81.6796875,
              16.595703125
            ],
            [
              81.6806640625,
              16.595703125
            ],
            [
              81.6806640625,
              16.5966796875
            ],
            [
              81.681640625,
              16.5966796875
            ],
            [
              81.681640625,
              16.599609375
            ],
            [
              81.6826171875,
              16.599609375
            ],
            [
              81.6826171875,
              16.6015625
            ],
            [
              81.68359375,
              16.6015625
            ],
            [
              81.68359375,
              16.6044921875
            ],
            [
              81.6845703125,
              16.6044921875
            ],
            [
              81.6845703125,
              16.6083984375
            ],
            [
              81.685546875,
              16.6083984375
            ],
            [
              81.685546875,
              16.6123046875
            ],
            [
              81.6865234375,
              16.6123046875
            ],
            [
              81.6865234375,
              16.623046875
            ],
            [
              81.6875,
              16.623046875
            ],
            [
              81.6875,
              16.62890625
            ],
            [
              81.6865234375,
              16.62890625
            ],
            [
              81.6865234375,
              16.63671875
            ],
            [
              81.685546875,
              16.63671875
            ],
            [
              81.685546875,
              16.640625
            ],
            [
              81.6845703125,
              16.640625
            ],
            [
              81.6845703125,
              16.6455078125
            ],
            [
              81.68359375,
              16.6455078125
            ],
            [
              81.68359375,
              16.6474609375
            ],
            [
              81.6826171875,
              16.6474609375
            ],
            [
              81.6826171875,
              16.650390625
            ],
            [
              81.681640625,
              16.650390625
            ],
            [
              81.681640625,
              16.65234375
            ],
            [
              81.6806640625,
              16.65234375
            ],
            [
              81.6806640625,
              16.654296875
            ],
            [
              81.6796875,
              16.654296875
            ],
            [
              81.6796875,
              16.6552734375
            ],
            [
              81.6787109375,
              16.6552734375
            ],
            [
              81.6787109375,
              16.6572265625
            ],
            [
              81.677734375,
              16.6572265625
            ],
            [
              81.677734375,
              16.6591796875
            ],
            [
              81.6767578125,
              16.6591796875
            ],
            [
              81.6767578125,
              16.66015625
            ],
            [
              81.67578125,
              16.66015625
            ],
            [
              81.67578125,
              16.662109375
            ],
            [
              81.673828125,
              16.662109375
            ],
            [
              81.673828125,
              16.6640625
            ],
            [
              81.6728515625,
              16.6640625
            ],
            [
              81.6728515625,
              16.6650390625
            ],
            [
              81.671875,
              16.6650390625
            ],
            [
              81.671875,
              16.666015625
            ],
            [
              81.6708984375,
              16.666015625
            ],
            [
              81.6708984375,
              16.6669921875
            ],
            [
              81.669921875,
              16.6669921875
            ],
            [
              81.669921875,
              16.66796875
            ],
            [
              81.6689453125,
              16.66796875
            ],
            [
              81.6689453125,
              16.6689453125
            ],
            [
              81.66796875,
              16.6689453125
            ],
            [
              81.66796875,
              16.669921875
            ],
            [
              81.6669921875,
              16.669921875
            ],
            [
              81.6669921875,
              16.6708984375
            ],
            [
              81.666015625,
              16.6708984375
            ],
            [
              81.666015625,
              16.671875
            ],
            [
              81.6650390625,
              16.671875
            ],
            [
              81.6650390625,
              16.6728515625
            ],
            [
              81.6630859375,
              16.6728515625
            ],
            [
              81.6630859375,
              16.673828125
            ],
            [
              81.662109375,
              16.673828125
            ],
            [
              81.662109375,
              16.6748046875
            ],
            [
              81.6611328125,
              16.6748046875
            ],
            [
              81.6611328125,
              16.67578125
            ],
            [
              81.6591796875,
              16.67578125
            ],
            [
              81.6591796875,
              16.6767578125
            ],
            [
              81.658203125,
              16.6767578125
            ],
            [
              81.658203125,
              16.677734375
            ],
            [
              81.65625,
              16.677734375
            ],
            [
              81.65625,
              16.6787109375
            ],
            [
              81.654296875,
              16.6787109375
            ],
            [
              81.654296875,
              16.6796875
            ],
            [
              81.6533203125,
              16.6796875
            ],
            [
              81.6533203125,
              16.6806640625
            ],
            [
              81.650390625,
              16.6806640625
            ],
            [
              81.650390625,
              16.681640625
            ],
            [
              81.6484375,
              16.681640625
            ],
            [
              81.6484375,
              16.6826171875
            ],
            [
              81.6455078125,
              16.6826171875
            ],
            [
              81.6455078125,
              16.68359375
            ],
            [
              81.6416015625,
              16.68359375
            ],
            [
              81.6416015625,
              16.6845703125
            ],
            [
              81.6376953125,
              16.6845703125
            ],
            [
              81.6376953125,
              16.685546875
            ],
            [
              81.626953125,
              16.685546875
            ],
            [
              81.626953125,
              16.6865234375
            ],
            [
              81.6240234375,
              16.6865234375
            ]
          ]
        ]
      },
      "properties": {
        "pixel_value": 1,
        "area_sq_m": 0.01,
        "area_hectares": 0.0
      }
    }
  ]
}