{
  "type": "FeatureCollection",
  "crs": {
    "type": "name",
    "properties": {
      "name": "EPSG:4326"
    }
  },
  "features": [
    {
      "type": "Feature",
      "geometry": {
        "type": "Polygon",
        "coordinates": [
          [
            [
              81.7490234375,
              16.740234375
            ],
            [
              81.7490234375,
              16.73828125
            ],
            [
              81.748046875,
              16.73828125
            ],
            [
              81.748046875,
              16.724609375
            ],
            [
              81.7470703125,
              16.724609375
            ],
            [
              81.7470703125,
              16.712890625
            ],
            [
              81.748046875,
              16.712890625
            ],
            [
              81.748046875,
              16.5166015625
            ],
            [
              81.7490234375,
              16.5166015625
            ],
            [
              81.7490234375,
              16.513671875
            ],
            [
              81.75,
              16.513671875
            ],
            [
              81.75,
              16.740234375
            ],
            [
              81.7490234375,
              16.740234375
            ]
          ]
        ]
      },
      "properties": {
        "pixel_value": 1,
        "area_sq_m": 0.0,
        "area_hectares": 0.0
      }
    },
    {
      "type": "Feature",
      "geometry": {
        "type": "Polygon",
        "coordinates": [
          [
            [
              81.501953125,
              16.75
            ],
            [
              81.501953125,
              16.748046875
            ],
            [
              81.515625,
              16.748046875
            ],
            [
              81.515625,
              16.7490234375
            ],
            [
              81.51953125,
              16.7490234375
            ],
            [
              81.51953125,
              16.748046875
            ],
            [
              81.7236328125,
              16.748046875
            ],
            [
              81.7236328125,
              16.7490234375
            ],
            [
              81.73046875,
              16.7490234375
            ],
            [
              81.73046875,
              16.748046875
            ],
            [
              81.7373046875,
              16.748046875
            ],
            [
              81.7373046875,
              16.74609375
            ],
            [
              81.734375,
              16.74609375
            ],
            [
              81.734375,
              16.7451171875
            ],
            [
              81.7333984375,
              16.7451171875
            ],
            [
              81.7333984375,
              16.7431640625
            ],
            [
              81.732421875,
              16.7431640625
            ],
            [
              81.732421875,
              16.7412109375
            ],
            [
              81.7314453125,
              16.7412109375
            ],
            [
              81.7314453125,
              16.740234375
            ],
            [
              81.728515625,
              16.740234375
            ],
            [
              81.728515625,
              16.7392578125
            ],
            [
              81.724609375,
              16.7392578125
            ],
            [
              81.724609375,
              16.740234375
            ],
            [
              81.537109375,
              16.740234375
            ],
            [
              81.537109375,
              16.7412109375
            ],
            [
              81.5341796875,
              16.7412109375
            ],
            [
              81.5341796875,
              16.7431640625
            ],
            [
              81.5263671875,
              16.7431640625
            ],
            [
              81.5263671875,
              16.7421875
            ],
            [
              81.51953125,
              16.7421875
            ],
            [
              81.51953125,
              16.7431640625
            ],
            [
              81.515625,
              16.7431640625
            ],
            [
              81.515625,
              16.744140625
            ],
            [
              81.51171875,
              16.744140625
            ],
            [
              81.51171875,
              16.7431640625
            ],
            [
              81.509765625,
              16.7431640625
            ],
            [
              81.509765625,
              16.7421875
            ],
            [
              81.5068359375,
              16.7421875
            ],
            [
              81.5068359375,
              16.7412109375
            ],
            [
              81.5048828125,
              16.7412109375
            ],
            [
              81.5048828125,
              16.740234375
            ],
            [
              81.50390625,
              16.740234375
            ],
            [
              81.50390625,
              16.7392578125
            ],
            [
              81.5029296875,
              16.7392578125
            ],
            [
              81.5029296875,
              16.740234375
            ],
            [
              81.501953125,
              16.740234375
            ],
            [
              81.501953125,
              16.7421875
            ],
            [
              81.5009765625,
              16.7421875
            ],
            [
              81.5009765625,
              16.7431640625
            ],
            [
              81.5,
              16.7431640625
            ],
            [
              81.5,
              16.5
            ],
            [
              81.7421875,
              16.5
            ],
            [
              81.7421875,
              16.5068359375
            ],
            [
              81.7431640625,
              16.5068359375
            ],
            [
              81.7431640625,
              16.5087890625
            ],
            [
              81.744140625,
              16.5087890625
            ],
            [
              81.744140625,
              16.533203125
            ],
            [
              81.7451171875,
              16.533203125
            ],
            [
              81.7451171875,
              16.7255859375
            ],
            [
              81.744140625,
              16.7255859375
            ],
            [
              81.744140625,
              16.736328125
            ],
            [
              81.7431640625,
              16.736328125
            ],
            [
              81.7431640625,
              16.740234375
            ],
            [
              81.7421875,
              16.740234375
            ],
            [
              81.7421875,
              16.748046875
            ],
            [
              81.744140625,
              16.748046875
            ],
            [
              81.744140625,
              16.7490234375
            ],
            [
              81.7470703125,
              16.7490234375
            ],
            [
              81.7470703125,
              16.748046875
            ],
            [
              81.75,
              16.748046875
            ],
            [
              81.75,
              16.75
            ],
            [
              81.501953125,
              16.75
            ]
          ]
        ]
      },
      "properties": {
        "pixel_value": 1,
        "area_sq_m": 0.06,
        "area_hectares": 0.0
      }
    }
  ]
}