{
  "type": "FeatureCollection",
  "crs": {
    "type": "name",
    "properties": {
      "name": "EPSG:4326"
    }
  },
  "features": [
    {
      "type": "Feature",
      "geometry": {
        "type": "Polygon",
        "coordinates": [
          [
            [
              81.625,
              16.6875
            ],
            [
              81.625,
              16.6865234375
            ],
            [
              81.6142578125,
              16.6865234375
            ],
            [
              81.6142578125,
              16.685546875
            ],
            [
              81.6103515625,
              16.685546875
            ],
            [
              81.6103515625,
              16.6845703125
            ],
            [
              81.6064453125,
              16.6845703125
            ],
            [
              81.6064453125,
              16.68359375
            ],
            [
              81.603515625,
              16.68359375
            ],
            [
              81.603515625,
              16.6826171875
            ],
            [
              81.6015625,
              16.6826171875
            ],
            [
              81.6015625,
              16.681640625
            ],
            [
              81.5986328125,
              16.681640625
            ],
            [
              81.5986328125,
              16.6806640625
            ],
            [
              81.5966796875,
              16.6806640625
            ],
            [
              81.5966796875,
              16.6796875
            ],
            [
              81.595703125,
              16.6796875
            ],
            [
              81.595703125,
              16.6787109375
            ],
            [
              81.59375,
              16.6787109375
            ],
            [
              81.59375,
              16.677734375
            ],
            [
              81.591796875,
              16.677734375
            ],
            [
              81.591796875,
              16.6767578125
            ],
            [
              81.5908203125,
              16.6767578125
            ],
            [
              81.5908203125,
              16.67578125
            ],
            [
              81.5888671875,
              16.67578125
            ],
            [
              81.5888671875,
              16.6748046875
            ],
            [
              81.587890625,
              16.6748046875
            ],
            [
              81.587890625,
              16.673828125
            ],
            [
              81.5869140625,
              16.673828125
            ],
            [
              81.5869140625,
              16.6728515625
            ],
            [
              81.5849609375,
              16.6728515625
            ],
            [
              81.5849609375,
              16.671875
            ],
            [
              81.583984375,
              16.671875
            ],
            [
              81.583984375,
              16.6708984375
            ],
            [
              81.5830078125,
              16.6708984375
            ],
            [
              81.5830078125,
              16.669921875
            ],
            [
              81.58203125,
              16.669921875
            ],
            [
              81.58203125,
              16.6689453125
            ],
            [
              81.5810546875,
              16.6689453125
            ],
            [
              81.5810546875,
              16.66796875
            ],
            [
              81.580078125,
              16.66796875
            ],
            [
              81.580078125,
              16.6669921875
            ],
            [
              81.5791015625,
              16.6669921875
            ],
            [
              81.5791015625,
              16.666015625
            ],
            [
              81.578125,
              16.666015625
            ],
            [
              81.578125,
              16.6650390625
            ],
            [
              81.5771484375,
              16.6650390625
            ],
            [
              81.5771484375,
              16.6630859375
            ],
            [
              81.576171875,
              16.6630859375
            ],
            [
              81.576171875,
              16.662109375
            ],
            [
              81.5751953125,
              16.662109375
            ],
            [
              81.5751953125,
              16.6611328125
            ],
            [
              81.57421875,
              16.6611328125
            ],
            [
              81.57421875,
              16.6591796875
            ],
            [
              81.5732421875,
              16.6591796875
            ],
            [
              81.5732421875,
              16.658203125
            ],
            [
              81.572265625,
              16.658203125
            ],
            [
              81.572265625,
              16.65625
            ],
            [
              81.5712890625,
              16.65625
            ],
            [
              81.5712890625,
              16.654296875
            ],
            [
              81.5703125,
              16.654296875
            ],
            [
              81.5703125,
              16.6533203125
            ],
            [
              81.5693359375,
              16.6533203125
            ],
            [
              81.5693359375,
              16.6513671875
            ],
            [
              81.568359375,
              16.6513671875
            ],
            [
              81.568359375,
              16.6484375
            ],
            [
              81.5673828125,
              16.6484375
            ],
            [
              81.5673828125,
              16.646484375
            ],
            [
              81.56640625,
              16.646484375
            ],
            [
              81.56640625,
              16.6435546875
            ],
            [
              81.5654296875,
              16.6435546875
            ],
            [
              81.5654296875,
              16.6396484375
            ],
            [
              81.564453125,
              16.6396484375
            ],
            [
              81.564453125,
              16.6357421875
            ],
            [
              81.5634765625,
              16.6357421875
            ],
            [
              81.5634765625,
              16.625
            ],
            [
              81.5625,
              16.625
            ],
            [
              81.5625,
              16.6240234375
            ],
            [
              81.5634765625,
              16.6240234375
            ],
            [
              81.5634765625,
              16.61328125
            ],
            [
              81.564453125,
              16.61328125
            ],
            [
              81.564453125,
              16.609375
            ],
            [
              81.5654296875,
              16.609375
            ],
            [
              81.5654296875,
              16.60546875
            ],
            [
              81.56640625,
              16.60546875
            ],
            [
              81.56640625,
              16.6025390625
            ],
            [
              81.5673828125,
              16.6025390625
            ],
            [
              81.5673828125,
              16.6005859375
            ],
            [
              81.568359375,
              16.6005859375
            ],
            [
              81.568359375,
              16.59765625
            ],
            [
              81.5693359375,
              16.59765625
            ],
            [
              81.5693359375,
              16.595703125
            ],
            [
              81.5703125,
              16.595703125
            ],
            [
              81.5703125,
              16.5947265625
            ],
            [
              81.5712890625,
              16.5947265625
            ],
            [
              81.5712890625,
              16.5927734375
            ],
            [
              81.572265625,
              16.5927734375
            ],
            [
              81.572265625,
              16.5908203125
            ],
            [
              81.5732421875,
              16.5908203125
            ],
            [
              81.5732421875,
              16.58984375
            ],
            [
              81.57421875,
              16.58984375
            ],
            [
              81.57421875,
              16.587890625
            ],
            [
              81.5751953125,
              16.587890625
            ],
            [
              81.5751953125,
              16.5869140625
            ],
            [
              81.576171875,
              16.5869140625
            ],
            [
              81.576171875,
              16.5859375
            ],
            [
              81.5771484375,
              16.5859375
            ],
            [
              81.5771484375,
              16.583984375
            ],
            [
              81.578125,
              16.583984375
            ],
            [
              81.578125,
              16.5830078125
            ],
            [
              81.5791015625,
              16.5830078125
            ],
            [
              81.5791015625,
              16.58203125
            ],
            [
              81.580078125,
              16.58203125
            ],
            [
              81.580078125,
              16.5810546875
            ],
            [
              81.5810546875,
              16.5810546875
            ],
            [
              81.5810546875,
              16.580078125
            ],
            [
              81.58203125,
              16.580078125
            ],
            [
              81.58203125,
              16.5791015625
            ],
            [
              81.5830078125,
              16.5791015625
            ],
            [
              81.5830078125,
              16.578125
            ],
            [
              81.583984375,
              16.578125
            ],
            [
              81.583984375,
              16.5771484375
            ],
            [
              81.5849609375,
              16.5771484375
            ],
            [
              81.5849609375,
              16.576171875
            ],
            [
              81.5869140625,
              16.576171875
            ],
            [
              81.5869140625,
              16.5751953125
            ],
            [
              81.587890625,
              16.5751953125
            ],
            [
              81.587890625,
              16.57421875
            ],
            [
              81.5888671875,
              16.57421875
            ],
            [
              81.5888671875,
              16.5732421875
            ],
            [
              81.5908203125,
              16.5732421875
            ],
            [
              81.5908203125,
              16.572265625
            ],
            [
              81.591796875,
              16.572265625
            ],
            [
              81.591796875,
              16.5712890625
            ],
            [
              81.59375,
              16.5712890625
            ],
            [
              81.59375,
              16.5703125
            ],
            [
              81.595703125,
              16.5703125
            ],
            [
              81.595703125,
              16.5693359375
            ],
            [
              81.5966796875,
              16.5693359375
            ],
            [
              81.5966796875,
              16.568359375
            ],
            [
              81.5986328125,
              16.568359375
            ],
            [
              81.5986328125,
              16.5673828125
            ],
            [
              81.6015625,
              16.5673828125
            ],
            [
              81.6015625,
              16.56640625
            ],
            [
              81.603515625,
              16.56640625
            ],
            [
              81.603515625,
              16.5654296875
            ],
            [
              81.6064453125,
              16.5654296875
            ],
            [
              81.6064453125,
              16.564453125
            ],
            [
              81.6103515625,
              16.564453125
            ],
            [
              81.6103515625,
              16.5634765625
            ],
            [
              81.6142578125,
              16.5634765625
            ],
            [
              81.6142578125,
              16.5625
            ],
            [
              81.625,
              16.5625
            ],
            [
              81.625,
              16.5615234375
            ],
            [
              81.6259765625,
              16.5615234375
            ],
            [
              81.6259765625,
              16.5625
            ],
            [
              81.63671875,
              16.5625
            ],
            [
              81.63671875,
              16.5634765625
            ],
            [
              81.640625,
              16.5634765625
            ],
            [
              81.640625,
              16.564453125
            ],
            [
              81.64453125,
              16.564453125
            ],
            [
              81.64453125,
              16.5654296875
            ],
            [
              81.6474609375,
              16.5654296875
            ],
            [
              81.6474609375,
              16.56640625
            ],
            [
              81.6494140625,
              16.56640625
            ],
            [
              81.6494140625,
              16.5673828125
            ],
            [
              81.65234375,
              16.5673828125
            ],
            [
              81.65234375,
              16.568359375
            ],
            [
              81.654296875,
              16.568359375
            ],
            [
              81.654296875,
              16.5693359375
            ],
            [
              81.6552734375,
              16.5693359375
            ],
            [
              81.6552734375,
              16.5703125
            ],
            [
              81.6572265625,
              16.5703125
            ],
            [
              81.6572265625,
              16.5712890625
            ],
            [
              81.6591796875,
              16.5712890625
            ],
            [
              81.6591796875,
              16.572265625
            ],
            [
              81.66015625,
              16.572265625
            ],
            [
              81.66015625,
              16.5732421875
            ],
            [
              81.662109375,
              16.5732421875
            ],
            [
              81.662109375,
              16.57421875
            ],
            [
              81.6630859375,
              16.57421875
            ],
            [
              81.6630859375,
              16.5751953125
            ],
            [
              81.6640625,
              16.5751953125
            ],
            [
              81.6640625,
              16.576171875
            ],
            [
              81.666015625,
              16.576171875
            ],
            [
              81.666015625,
              16.5771484375
            ],
            [
              81.6669921875,
              16.5771484375
            ],
            [
              81.6669921875,
              16.578125
            ],
            [
              81.66796875,
              16.578125
            ],
            [
              81.66796875,
              16.5791015625
            ],
            [
              81.6689453125,
              16.5791015625
            ],
            [
              81.6689453125,
              16.580078125
            ],
            [
              81.669921875,
              16.580078125
            ],
            [
              81.669921875,
              16.5810546875
            ],
            [
              81.6708984375,
              16.5810546875
            ],
            [
              81.6708984375,
              16.58203125
            ],
            [
              81.671875,
              16.58203125
            ],
            [
              81.671875,
              16.5830078125
            ],
            [
              81.6728515625,
              16.5830078125
            ],
            [
              81.6728515625,
              16.583984375
            ],
            [
              81.673828125,
              16.583984375
            ],
            [
              81.673828125,
              16.5859375
            ],
            [
              81.6748046875,
              16.5859375
            ],
            [
              81.6748046875,
              16.5869140625
            ],
            [
              81.67578125,
              16.5869140625
            ],
            [
              81.67578125,
              16.587890625
            ],
            [
              81.6767578125,
              16.587890625
            ],
            [
              81.6767578125,
              16.58984375
            ],
            [
              81.677734375,
              16.58984375
            ],
            [
              81.677734375,
              16.5908203125
            ],
            [
              81.6787109375,
              16.5908203125
            ],
            [
              81.6787109375,
              16.5927734375
            ],
            [
              81.6796875,
              16.5927734375
            ],
            [
              81.6796875,
              16.5947265625
            ],
            [
              81.6806640625,
              16.5947265625
            ],
            [
              81.6806640625,
              16.595703125
            ],
            [
              81.681640625,
              16.595703125
            ],
            [
              81.681640625,
              16.59765625
            ],
            [
              81.6826171875,
              16.59765625
            ],
            [
              81.6826171875,
              16.6005859375
            ],
            [
              81.68359375,
              16.6005859375
            ],
            [
              81.68359375,
              16.6025390625
            ],
            [
              81.6845703125,
              16.6025390625
            ],
            [
              81.6845703125,
              16.60546875
            ],
            [
              81.685546875,
              16.60546875
            ],
            [
              81.685546875,
              16.609375
            ],
            [
              81.6865234375,
              16.609375
            ],
            [
              81.6865234375,
              16.61328125
            ],
            [
              81.6875,
              16.61328125
            ],
            [
              81.6875,
              16.6240234375
            ],
            [
              81.6884765625,
              16.6240234375
            ],
            [
              81.6884765625,
              16.625
            ],
            [
              81.6875,
              16.625
            ],
            [
              81.6875,
              16.6357421875
            ],
            [
              81.6865234375,
              16.6357421875
            ],
            [
              81.6865234375,
              16.6396484375
            ],
            [
              81.685546875,
              16.6396484375
            ],
            [
              81.685546875,
              16.6435546875
            ],
            [
              81.6845703125,
              16.6435546875
            ],
            [
              81.6845703125,
              16.646484375
            ],
            [
              81.68359375,
              16.646484375
            ],
            [
              81.68359375,
              16.6484375
            ],
            [
              81.6826171875,
              16.6484375
            ],
            [
              81.6826171875,
              16.6513671875
            ],
            [
              81.681640625,
              16.6513671875
            ],
            [
              81.681640625,
              16.6533203125
            ],
            [
              81.6806640625,
              16.6533203125
            ],
            [
              81.6806640625,
              16.654296875
            ],
            [
              81.6796875,
              16.654296875
            ],
            [
              81.6796875,
              16.65625
            ],
            [
              81.6787109375,
              16.65625
            ],
            [
              81.6787109375,
              16.658203125
            ],
            [
              81.677734375,
              16.658203125
            ],
            [
              81.677734375,
              16.6591796875
            ],
            [
              81.6767578125,
              16.6591796875
            ],
            [
              81.6767578125,
              16.6611328125
            ],
            [
              81.67578125,
              16.6611328125
            ],
            [
              81.67578125,
              16.662109375
            ],
            [
              81.6748046875,
              16.662109375
            ],
            [
              81.6748046875,
              16.6630859375
            ],
            [
              81.673828125,
              16.6630859375
            ],
            [
              81.673828125,
              16.6650390625
            ],
            [
              81.6728515625,
              16.6650390625
            ],
            [
              81.6728515625,
              16.666015625
            ],
            [
              81.671875,
              16.666015625
            ],
            [
              81.671875,
              16.6669921875
            ],
            [
              81.6708984375,
              16.6669921875
            ],
            [
              81.6708984375,
              16.66796875
            ],
            [
              81.669921875,
              16.66796875
            ],
            [
              81.669921875,
              16.6689453125
            ],
            [
              81.6689453125,
              16.6689453125
            ],
            [
              81.6689453125,
              16.669921875
            ],
            [
              81.66796875,
              16.669921875
            ],
            [
              81.66796875,
              16.6708984375
            ],
            [
              81.6669921875,
              16.6708984375
            ],
            [
              81.6669921875,
              16.671875
            ],
            [
              81.666015625,
              16.671875
            ],
            [
              81.666015625,
              16.6728515625
            ],
            [
              81.6640625,
              16.6728515625
            ],
            [
              81.6640625,
              16.673828125
            ],
            [
              81.6630859375,
              16.673828125
            ],
            [
              81.6630859375,
              16.6748046875
            ],
            [
              81.662109375,
              16.6748046875
            ],
            [
              81.662109375,
              16.67578125
            ],
            [
              81.66015625,
              16.67578125
            ],
            [
              81.66015625,
              16.6767578125
            ],
            [
              81.6591796875,
              16.6767578125
            ],
            [
              81.6591796875,
              16.677734375
            ],
            [
              81.6572265625,
              16.677734375
            ],
            [
              81.6572265625,
              16.6787109375
            ],
            [
              81.6552734375,
              16.6787109375
            ],
            [
              81.6552734375,
              16.6796875
            ],
            [
              81.654296875,
              16.6796875
            ],
            [
              81.654296875,
              16.6806640625
            ],
            [
              81.65234375,
              16.6806640625
            ],
            [
              81.65234375,
              16.681640625
            ],
            [
              81.6494140625,
              16.681640625
            ],
            [
              81.6494140625,
              16.6826171875
            ],
            [
              81.6474609375,
              16.6826171875
            ],
            [
              81.6474609375,
              16.68359375
            ],
            [
              81.64453125,
              16.68359375
            ],
            [
              81.64453125,
              16.6845703125
            ],
            [
              81.640625,
              16.6845703125
            ],
            [
              81.640625,
              16.685546875
            ],
            [
              81.63671875,
              16.685546875
            ],
            [
              81.63671875,
              16.6865234375
            ],
            [
              81.6259765625,
              16.6865234375
            ],
            [
              81.6259765625,
              16.6875
            ],
            [
              81.625,
              16.6875
            ]
          ]
        ]
      },
      "properties": {
        "pixel_value": 1,
        "area_sq_m": 0.01,
        "area_hectares": 0.0
      }
    }
  ]
}